sat1_epoch day,sat1_ballistic coefficient,sat1_inclination,sat1_right ascension of the ascending node,sat1_eccentricity,sat1_argument of perigee,sat1_mean anomaly,sat1_mean motion,sat1_apogee,sat1_perigee,sat2_epoch day,sat2_ballistic coefficient,sat2_inclination,sat2_right ascension of the ascending node,sat2_eccentricity,sat2_argument of perigee,sat2_mean anomaly,sat2_mean motion,sat2_apogee,sat2_perigee,inclination difference,eccentricity difference,ascending node difference,argument of perigee difference,mean anomaly difference,mean motion difference,apogee difference,perigee difference,close_approach
351.68977149,-1.693e-05,70.0018,334.0388,0.0002728,272.9949,87.0898,14.98338255,-6276.5356812611635,-6276.5872069372635,356.34247958,2.2e-06,53.1619,335.1451,0.0001472,104.6128,255.5036,15.30196375,-6277.863111074482,-6277.890526539026,16.8399,0.00012560000000000002,-1.106300000000033,168.38209999999998,-168.4138,-0.31858120000000056,1.3274298133183038,1.3033196017622686,False
356.36316573,1.93e-05,97.8471,66.7327,0.0001323,80.2475,279.8886,14.80342875,-6275.785046947024,-6275.810237490893,355.78097169,1.562e-05,43.0032,256.7409,0.000113,273.6681,86.4032,15.02531199,-6276.726566890336,-6276.747870278936,54.8439,1.9299999999999995e-05,-190.00820000000002,-193.42059999999998,193.4854,-0.22188324000000037,0.9415199433115049,0.9376327880427198,False
356.48148713,3.035e-05,98.1276,260.2924,0.0006831,244.6413,115.4091,14.80465785,-6275.7378823680665,-6275.867940630376,356.10909155,6.998e-05,53.0533,242.9289,0.0001418,92.8889,267.2263,15.06397483,-6276.885232485279,-6276.9119196491065,45.0743,0.0005413,17.363499999999988,151.7524,-151.81719999999999,-0.2593169799999995,1.147350117212227,1.0439790187301696,False
352.25001157,0.00158362,53.0473,152.177,0.0002212,313.5493,205.6401,15.59077474,-6279.010094323645,-6279.050781657878,355.86115836,9.75e-06,53.2166,161.7612,0.0001378,88.9041,271.2109,15.08837889,-6276.987117159741,-6277.013023540352,-0.16929999999999978,8.340000000000002e-05,-9.58420000000001,224.64520000000002,-65.57079999999999,0.502395850000001,-2.0229771639042156,-2.0377581175262094,False
352.09325385,6.752e-05,53.0524,240.9561,0.0001482,82.0942,278.0215,15.06396679,-6276.884596748417,-6276.912488420395,356.08753494,3.607e-05,43.0026,267.508,9.49e-05,270.9674,89.106,15.0253029,-6276.7282350250425,-6276.746126108171,10.049799999999998,5.3299999999999995e-05,-26.55189999999999,-188.8732,188.9155,0.03866389000000048,-0.1563617233741752,-0.16636231222400966,False
356.51937015,5.72e-06,97.9452,336.5616,0.0009614,267.7362,92.2736,14.55709891,-6274.634105365408,-6274.8192197386525,356.43987808,-1.314e-05,43.0048,354.6015,9.75e-05,299.3299,60.7446,15.02527605,-6276.727877633061,-6276.746258904749,54.9404,0.0008638999999999999,-18.03989999999999,-31.593700000000013,31.529000000000003,-0.4681771399999999,2.0937722676535486,1.9270391660966197,False
355.89791262,-6.5e-07,52.0078,278.8404,7.45e-05,56.1183,20.7188,12.62268544,-6265.118415930672,-6265.134191111448,355.95871285,1.332e-05,53.1599,223.5244,0.0001248,90.2513,269.8631,15.30192195,-6277.86502742398,-6277.888271012335,-1.1520999999999972,-5.03e-05,55.315999999999974,-34.133,-249.1443,-2.679236510000001,12.746611493307682,12.754079900887518,False
352.09087181,-5.384e-05,53.0551,315.6844,0.0001664,91.5779,268.54,15.06385373,-6276.882413179112,-6276.9137303008365,354.77596783,-2.3e-07,0.0624,349.0788,0.0002659,282.283,88.6069,5.00115177,-6174.682948178845,-6174.787321834049,52.992700000000006,-9.95e-05,-33.39440000000002,-190.70510000000002,179.93310000000002,10.06270196,-102.19946500026617,-102.12640846678732,False
356.29664556,1.5e-07,55.4975,116.4621,0.0002969,255.4334,104.5033,1.70473501,-5968.672005772206,-5968.91083722612,356.51243613,-1.3e-07,87.9248,22.4069,0.0002009,97.0684,263.0678,13.20771476,-6268.2556293354255,-6268.296903731532,-32.4273,9.6e-05,94.05520000000001,158.365,-158.56449999999998,-11.50297975,299.5836235632196,299.3860665054126,False
355.8143775,1.95e-06,86.3961,315.4003,0.0002188,83.8655,276.279,14.34217665,-6273.74598243008,-6273.788531478438,356.09753164,6.33e-06,43.0053,319.0381,0.000147,266.2223,93.8451,15.02532466,-6276.723414954519,-6276.751128196676,43.390800000000006,7.180000000000001e-05,-3.63779999999997,-182.35680000000002,182.4339,-0.68314801,2.977432524438882,2.9625967182382738,False
355.86115836,9.75e-06,53.2166,161.7612,0.0001378,88.9041,271.2109,15.08837889,-6276.987117159741,-6277.013023540352,355.78097169,1.562e-05,43.0032,256.7409,0.000113,273.6681,86.4032,15.02531199,-6276.726566890336,-6276.747870278936,10.2134,2.4799999999999993e-05,-94.97970000000001,-184.76399999999998,184.80769999999998,0.06306689999999904,-0.2605502694050301,-0.2651532614163443,False
351.80629581,7.6e-07,87.9061,8.1602,0.0001454,89.4332,270.6965,13.15550205,-6267.989671176109,-6268.019622224849,352.04776021,9.1e-06,97.6526,110.266,6.51e-05,243.1912,116.9245,15.01265467,-6276.6781034723435,-6276.690383383849,-9.746500000000012,8.030000000000001e-05,-102.1058,-153.758,153.77200000000002,-1.857152619999999,8.688432296234168,8.670761158999994,False
351.84859846,4.46e-06,43.001,32.1496,0.0001346,258.0517,102.0183,15.25903559,-6277.689687434218,-6277.7148031897805,355.80178189,-3.21e-06,87.8909,129.3562,0.0001539,104.0406,256.0893,13.11419298,-6267.772588934632,-6267.804357442584,-44.889900000000004,-1.930000000000001e-05,-97.20660000000001,154.0111,-154.07099999999997,2.1448426099999995,-9.917098499586245,-9.910445747196718,False
352.04776021,9.1e-06,97.6526,110.266,6.51e-05,243.1912,116.9245,15.01265467,-6276.6781034723435,-6276.690383383849,356.36829822,7.8e-07,53.5259,165.8187,0.0162107,59.1785,302.4083,2.00561111,-6004.245716376491,-6015.946722212261,44.12670000000001,-0.016145600000000003,-55.5527,184.0127,-185.4838,13.00704356,-272.4323870958524,-260.7436611715875,False
350.70206993,2.5e-07,0.0312,54.5986,1.36e-05,206.6776,251.2887,1.00272189,-5798.061299772793,-5798.076883493501,351.91667824,-0.0136199,42.9998,178.6839,0.0001798,275.8844,55.8131,15.70858965,-6279.474411100512,-6279.507317785658,-42.9686,-0.0001662,-124.08529999999999,-69.20680000000002,195.47560000000001,-14.70586776,481.413111327719,481.43043429215777,False
351.91667824,0.00157934,53.0493,25.2,0.0002929,46.609,147.6726,15.73699669,-6279.574249658963,-6279.6277911812,356.45548329,5.998e-05,43.0028,120.3502,0.0002017,277.3832,82.6795,15.4074671,-6278.283718566162,-6278.321112771681,10.046500000000002,9.120000000000002e-05,-95.1502,-230.77419999999998,64.99309999999998,0.32952958999999993,-1.2905310928008475,-1.3066784095190087,False
356.19693061,4.127e-05,53.2194,310.0391,0.0001524,100.0237,260.0927,15.08839537,-6276.985813217582,-6277.0144643752765,355.95871285,1.332e-05,53.1599,223.5244,0.0001248,90.2513,269.8631,15.30192195,-6277.86502742398,-6277.888271012335,0.059499999999999886,2.7599999999999993e-05,86.5147,9.772400000000005,-9.770399999999995,-0.2135265799999999,0.8792142063975916,0.8738066370588058,False
355.87269324,5.8e-06,53.0555,148.9864,0.0001333,96.2142,263.8999,15.06406913,-6276.886425112282,-6276.9115124472055,355.83739789,4.8e-06,87.89,129.3378,0.000128,86.5198,273.6077,13.11416307,-6267.77510516069,-6267.8015273517285,-34.8345,5.299999999999993e-06,19.648600000000016,9.694400000000002,-9.70780000000002,1.94990606,-9.111319951592122,-9.109985095476986,False
351.72229021,5.07e-06,87.8894,145.3411,0.0001331,102.7087,257.419,13.10377479,-6267.720029973093,-6267.747519442265,356.53741907,2.87e-06,85.9927,142.6817,0.0001637,75.6887,284.4477,14.12246404,-6272.745295792664,-6272.777459117686,1.8966999999999956,-3.0599999999999985e-05,2.659400000000005,27.019999999999996,-27.028700000000015,-1.0186892500000013,5.025265819571359,5.029939675420792,False
355.78097169,1.562e-05,43.0032,256.7409,0.000113,273.6681,86.4032,15.02531199,-6276.726566890336,-6276.747870278936,356.27423888,2.149e-05,43.0037,86.5949,0.0001195,263.6357,96.4349,15.02541457,-6276.7263832616045,-6276.748911963825,-0.0005000000000023874,-6.500000000000009e-06,170.14600000000002,10.032399999999996,-10.0317,-0.00010258000000007428,-0.00018362873106525512,0.0010416848890599795,False
355.58478183,3.585e-05,53.1609,58.266,0.0001469,71.1854,288.9306,15.30199851,-6277.863280057872,-6277.890639607073,356.16217687,2.524e-05,97.7331,69.7424,0.0009865,100.6793,259.5538,14.94333922,-6276.299479448078,-6276.48613943505,-44.572199999999995,-0.0008396,-11.476400000000005,-29.493899999999996,29.376800000000003,0.3586592900000003,-1.5638006097933612,-1.4045001720232904,False
352.14927962,2.05e-06,97.6567,50.3521,3.12e-05,196.541,163.5804,15.01264922,-6276.681277949657,-6276.687163254292,351.91667824,-0.0136199,42.9998,178.6839,0.0001798,275.8844,55.8131,15.70858965,-6279.474411100512,-6279.507317785658,54.6569,-0.0001486,-128.3318,-79.34340000000003,107.7673,-0.6959404300000003,2.793133150855283,2.820154531366825,False
352.12941721,-3.39e-06,43.0039,263.8805,0.0001331,273.9906,86.0784,15.02532965,-6276.72474607936,-6276.74983881211,355.58478183,3.585e-05,53.1609,58.266,0.0001469,71.1854,288.9306,15.30199851,-6277.863280057872,-6277.890639607073,-10.156999999999996,-1.3799999999999983e-05,205.6145,202.80519999999996,-202.85220000000004,-0.2766688600000009,1.1385339785119868,1.14080079496307,False
351.75871985,0.00012938,53.0539,112.4568,0.0001482,83.7716,276.3442,15.06448899,-6276.886771724174,-6276.914662751585,355.88961922,8.59e-06,69.9993,163.3751,0.0003011,270.7471,89.3343,14.98329309,-6276.53263263084,-6276.589503755574,-16.945400000000006,-0.0001529,-50.9183,-186.97549999999998,187.00990000000002,0.0811958999999991,-0.35413909333328775,-0.32515899601094134,False
